ONEWEB-0597             
1 54663U 22166X   24308.85452849  .00000086  00000+0  17581-3 0  9991
2 54663  87.9339   1.5675 0001912 105.0966 255.0379 13.21826866 93555
ONEWEB-0600             
1 54664U 22166Y   24308.68577352  .00000088  00000+0  18266-3 0  9993
2 54664  87.9332   1.6334 0001879 101.1689 258.9656 13.21825298 93506
ONEWEB-0601             
1 54665U 22166Z   24308.67789272 -.00000030  00000+0 -10354-3 0  9998
2 54665  87.9336   1.6093 0001733 125.7254 234.4042 13.21826633 93694
ONEWEB-0602             
1 54666U 22166AA  24308.87028011 -.00000043  00000+0 -13556-3 0  9999
2 54666  87.9337   1.5743 0001897 108.0372 252.0968 13.21830965 93565
ONEWEB-0603             
1 54667U 22166AB  24308.87500440 -.00000210  00000+0 -54111-3 0  9999
2 54667  87.9314   1.5736 0001910 108.8319 251.3023 13.21824029 93498
ONEWEB-0604             
1 54668U 22166AC  24308.86241391  .00000142  00000+0  31249-3 0  9995
2 54668  87.9331   1.5489 0002058 103.2252 256.9111 13.21827524 93450
ONEWEB-0605             
1 54669U 22166AD  24308.85609483  .00000069  00000+0  13479-3 0  9998
2 54669  87.9334   1.5824 0001426 119.8270 240.3006 13.21824816 93998
ONEWEB-0606             
1 54670U 22166AE  24308.87818722  .00000104  00000+0  22107-3 0  9998
2 54670  87.9342   1.5762 0001795  92.6065 267.5274 13.21825587 94040
